NORAD_CAT_ID,OBJECT_NAME,OBJECT_TYPE,EPOCH,MEAN_MOTION,ECCENTRICITY,INCLINATION,RA_OF_ASC_NODE,ARG_OF_PERICENTER,MEAN_ANOMALY,BSTAR,MEAN_MOTION_DOT,MEAN_MOTION_DDOT,TLE_LINE0,TLE_LINE1,TLE_LINE2,SEMIMAJOR_AXIS,PERIOD,APOGEE,PERIGEE,DECAYED
52349.0,STARLINK-3819,PAYLOAD,2023-10-27 20:58:52,15.08853479,0.0001389,53.2152,116.9387,90.1137,270.0014,0.00020555,2.986e-05,0.0,0 STARLINK-3819,1 52349U 22045U   23300.87422147  .00002986  00000-0  20555-3 0  9994,2 52349  53.2152 116.9387 0001389  90.1137 270.0014 15.08853479 85377,6917.839,95.437,540.665,538.743,0.0
52349.0,STARLINK-3819,PAYLOAD,2023-10-28 04:55:48,15.08845139,0.0001558,53.2148,115.4517,83.0209,277.096,6.2108e-05,7.01e-06,0.0,0 STARLINK-3819,1 52349U 22045U   23301.20542540  .00000701  00000-0  62108-4 0  9996,2 52349  53.2148 115.4517 0001558  83.0209 277.0960 15.08845139 85427,6917.865,95.437,540.807,538.652,0.0
52349.0,STARLINK-3819,PAYLOAD,2023-10-28 20:49:40,15.08835275,0.0001531,53.2156,112.4787,83.2354,276.8812,-3.3961e-06,-3.42e-06,0.0,0 STARLINK-3819,1 52349U 22045U   23301.86783337 -.00000342  00000-0 -33961-5 0  9998,2 52349  53.2156 112.4787 0001531  83.2354 276.8812 15.08835275 85520,6917.895,95.438,540.819,538.701,0.0
52349.0,STARLINK-3819,PAYLOAD,2023-10-29 11:08:08,15.08840465,0.0001458,53.214,109.8021,81.4322,278.6835,0.00018332,2.631e-05,0.0,0 STARLINK-3819,1 52349U 22045U   23302.46399273  .00002631  00000-0  18332-3 0  9991,2 52349  53.2140 109.8021 0001458  81.4322 278.6835 15.08840465 85619,6917.879,95.438,540.753,538.735,0.0
52349.0,STARLINK-3819,PAYLOAD,2023-10-29 17:29:41,15.08843179,0.0001469,53.2135,108.6124,80.231,279.8848,0.0003453,5.212e-05,0.0,0 STARLINK-3819,1 52349U 22045U   23302.72895304  .00005212  00000-0  34530-3 0  9992,2 52349  53.2135 108.6124 0001469  80.2310 279.8848 15.08843179 85656,6917.871,95.437,540.752,538.719,0.0
52349.0,STARLINK-3819,PAYLOAD,2023-10-30 10:58:56,15.08839268,0.0001516,53.2148,105.3418,78.574,281.5423,0.00020701,3.008e-05,0.0,0 STARLINK-3819,1 52349U 22045U   23303.45759628  .00003008  00000-0  20701-3 0  9997,2 52349  53.2148 105.3418 0001516  78.5740 281.5423 15.08839268 85765,6917.883,95.438,540.796,538.699,0.0
52349.0,STARLINK-3819,PAYLOAD,2023-10-30 20:31:14,15.08846472,0.000145,53.2158,103.5564,85.2838,274.8319,0.00032555,4.898e-05,0.0,0 STARLINK-3819,1 52349U 22045U   23303.85503406  .00004898  00000-0  32555-3 0  9990,2 52349  53.2158 103.5564 0001450  85.2838 274.8319 15.08846472 85829,6917.861,95.437,540.729,538.723,0.0
52349.0,STARLINK-3819,PAYLOAD,2023-10-31 14:00:29,15.08841124,0.0001503,53.2163,100.2848,89.8672,270.2492,0.00020026,2.901e-05,0.0,0 STARLINK-3819,1 52349U 22045U   23304.58367573  .00002901  00000-0  20026-3 0  9997,2 52349  53.2163 100.2848 0001503  89.8672 270.2492 15.08841124 85932,6917.877,95.437,540.782,538.702,0.0
52349.0,STARLINK-3819,PAYLOAD,2023-10-31 20:22:01,15.08847338,0.000145,53.2162,99.0947,89.3343,270.7816,0.00012941,1.773e-05,0.0,0 STARLINK-3819,1 52349U 22045U   23304.84863162  .00001773  00000-0  12941-3 0  9994,2 52349  53.2162  99.0947 0001450  89.3343 270.7816 15.08847338 85979,6917.858,95.437,540.726,538.72,0.0
52349.0,STARLINK-3819,PAYLOAD,2023-11-01 10:40:30,15.08844597,0.0001436,53.2164,96.4174,90.1373,269.9783,-5.0419e-05,-1.09e-05,0.0,0 STARLINK-3819,1 52349U 22045U   23305.44479226 -.00001090  00000-0 -50419-4 0  9992,2 52349  53.2164  96.4174 0001436  90.1373 269.9783 15.08844597 86069,6917.866,95.437,540.725,538.738,0.0
52349.0,STARLINK-3819,PAYLOAD,2023-11-01 17:02:02,15.08847171,0.0001362,53.216,95.2294,87.8844,272.2304,0.00015822,2.232e-05,0.0,0 STARLINK-3819,1 52349U 22045U   23305.70975065  .00002232  00000-0  15822-3 0  9998,2 52349  53.2160  95.2294 0001362  87.8844 272.2304 15.08847171 86101,6917.858,95.437,540.666,538.781,0.0
52349.0,STARLINK-3819,PAYLOAD,2023-11-02 02:34:21,15.08840792,0.0001298,53.2169,93.4438,80.4244,279.6894,4.2969e-05,3.96e-06,0.0,0 STARLINK-3819,1 52349U 22045U   23306.10719295  .00000396  00000-0  42969-4 0  9996,2 52349  53.2169  93.4438 0001298  80.4244 279.6894 15.08840792 86164,6917.878,95.438,540.641,538.845,0.0
52349.0,STARLINK-3819,PAYLOAD,2023-11-02 13:42:04,15.08835898,0.0001387,53.2177,91.3663,78.983,281.1319,1.9007e-05,1.5e-07,0.0,0 STARLINK-3819,1 52349U 22045U   23306.57088003  .00000015  00000-0  19007-4 0  9998,2 52349  53.2177  91.3663 0001387  78.9830 281.1319 15.08835898 86231,6917.893,95.438,540.717,538.798,0.0
52349.0,STARLINK-3819,PAYLOAD,2023-11-02 16:52:49,15.08842573,0.000128,53.2171,90.7711,92.7048,267.409,5.0842e-05,5.21e-06,0.0,0 STARLINK-3819,1 52349U 22045U   23306.70335420  .00000521  00000-0  50842-4 0  9995,2 52349  53.2171  90.7711 0001280  92.7048 267.4090 15.08842573 86252,6917.873,95.437,540.623,538.852,0.0
52349.0,STARLINK-3819,PAYLOAD,2023-11-03 13:32:51,15.08836937,0.000134,53.2189,86.9064,95.7952,264.3193,3.5226e-05,2.73e-06,0.0,0 STARLINK-3819,1 52349U 22045U   23307.56448104  .00000273  00000-0  35226-4 0  9997,2 52349  53.2189  86.9064 0001340  95.7952 264.3193 15.08836937 86384,6917.89,95.438,540.682,538.828,0.0
52349.0,STARLINK-3819,PAYLOAD,2023-11-03 19:54:23,15.08843887,0.0001517,53.2182,85.7172,100.847,259.2693,9.6014e-05,1.241e-05,0.0,0 STARLINK-3819,1 52349U 22045U   23307.82943514  .00001241  00000-0  96014-4 0  9999,2 52349  53.2182  85.7172 0001517 100.8470 259.2693 15.08843887 86428,6917.869,95.437,540.783,538.684,0.0
52349.0,STARLINK-3819,PAYLOAD,2023-11-04 13:23:38,15.0882681,0.0001283,53.216,82.4445,99.9649,260.1487,6.9436e-05,8.17e-06,0.0,0 STARLINK-3819,1 52349U 22045U   23308.55808927  .00000817  00000-0  69436-4 0  9994,2 52349  53.2160  82.4445 0001283  99.9649 260.1487 15.08826810 86538,6917.921,95.438,540.673,538.898,0.0
52349.0,STARLINK-3819,PAYLOAD,2023-11-04 16:34:24,15.08842125,0.0001764,53.2178,81.8458,108.0141,252.1044,5.0473e-06,-2.08e-06,0.0,0 STARLINK-3819,1 52349U 22045U   23308.69056161 -.00000208  00000-0  50473-5 0  9991,2 52349  53.2178  81.8458 0001764 108.0141 252.1044 15.08842125 86556,6917.874,95.437,540.959,538.519,0.0
52349.0,STARLINK-3819,PAYLOAD,2023-11-05 14:49:47,15.08850849,0.0001283,53.2161,77.6881,89.2426,270.8714,0.00031057,4.66e-05,0.0,0 STARLINK-3819,1 52349U 22045U   23309.61791634  .00004660  00000-0  31057-3 0  9995,2 52349  53.2161  77.6881 0001283  89.2426 270.8714 15.08850849 86691,6917.847,95.437,540.6,538.825,0.0
52349.0,STARLINK-3819,PAYLOAD,2023-11-05 16:25:10,15.08861995,0.0001428,53.2174,77.389,99.2531,260.8623,0.00036552,5.538e-05,0.0,0 STARLINK-3819,1 52349U 22045U   23309.68414905  .00005538  00000-0  36552-3 0  9995,2 52349  53.2174  77.3890 0001428  99.2531 260.8623 15.08861995 86705,6917.813,95.436,540.666,538.69,0.0
52349.0,STARLINK-3819,PAYLOAD,2023-11-06 01:57:29,15.08860231,0.0001725,53.2167,75.6051,83.2491,276.8697,0.00040714,6.201e-05,0.0,0 STARLINK-3819,1 52349U 22045U   23310.08159031  .00006201  00000-0  40714-3 0  9990,2 52349  53.2167  75.6051 0001725  83.2491 276.8697 15.08860231 86761,6917.819,95.436,540.877,538.49,0.0
52349.0,STARLINK-3819,PAYLOAD,2023-11-06 14:40:35,15.08831789,0.0001512,53.2176,73.2274,79.99,280.1263,-0.0001759,-3.086e-05,0.0,0 STARLINK-3819,1 52349U 22045U   23310.61152174 -.00003086  00000-0 -17590-3 0  9996,2 52349  53.2176  73.2274 0001512  79.9900 280.1263 15.08831789 86845,6917.905,95.438,540.816,538.724,0.0
52349.0,STARLINK-3819,PAYLOAD,2023-11-07 01:48:18,15.08809124,0.0001368,53.2183,71.1457,86.111,274.0038,-0.00044691,-7.387e-05,0.0,0 STARLINK-3819,1 52349U 22045U   23311.07521799 -.00007387  00000-0 -44691-3 0  9990,2 52349  53.2183  71.1457 0001368  86.1110 274.0038 15.08809124 86913,6917.975,95.44,540.786,538.893,0.0
52349.0,STARLINK-3819,PAYLOAD,2023-11-07 11:20:37,15.08822148,0.000145,53.2175,69.3623,78.8325,281.283,-9.0053e-05,-1.72e-05,0.0,0 STARLINK-3819,1 52349U 22045U   23311.47265994 -.00001720  00000-0 -90053-4 0  9995,2 52349  53.2175  69.3623 0001450  78.8325 281.2830 15.08822148 86973,6917.935,95.439,540.803,538.797,0.0
52349.0,STARLINK-3819,PAYLOAD,2023-11-07 14:31:23,15.08832228,0.0001484,53.2179,68.7652,90.3556,269.7606,7.5418e-05,9.12e-06,0.0,0 STARLINK-3819,1 52349U 22045U   23311.60513699  .00000912  00000-0  75418-4 0  9996,2 52349  53.2179  68.7652 0001484  90.3556 269.7606 15.08832228 86998,6917.904,95.438,540.796,538.743,0.0
52349.0,STARLINK-3819,PAYLOAD,2023-11-08 14:22:10,15.0885269,0.0001416,53.2184,64.3078,88.6601,271.4553,0.00085867,0.00013409,0.0,0 STARLINK-3819,1 52349U 22045U   23312.59873752  .00013409  00000-0  85867-3 0  9997,2 52349  53.2184  64.3078 0001416  88.6601 271.4553 15.08852690 87148,6917.842,95.437,540.686,538.727,0.0
52349.0,STARLINK-3819,PAYLOAD,2023-11-09 12:37:34,15.08853478,0.0001606,53.2184,60.1428,102.7211,257.3961,0.00021846,3.192e-05,0.0,0 STARLINK-3819,1 52349U 22045U   23313.52609002  .00003192  00000-0  21846-3 0  9991,2 52349  53.2184  60.1428 0001606 102.7211 257.3961 15.08853478 87283,6917.839,95.437,540.815,538.593,0.0
52349.0,STARLINK-3819,PAYLOAD,2023-11-09 14:12:57,15.08856152,0.0001462,53.2184,59.8478,92.8654,267.2506,0.00019337,2.792e-05,0.0,0 STARLINK-3819,1 52349U 22045U   23313.59232855  .00002792  00000-0  19337-3 0  9993,2 52349  53.2184  59.8478 0001462  92.8654 267.2506 15.08856152 87291,6917.831,95.437,540.707,538.685,0.0
52349.0,STARLINK-3819,PAYLOAD,2023-11-10 12:28:20,15.08846382,0.0002113,53.2201,55.6906,111.5157,248.6061,-9.518e-05,-1.803e-05,0.0,0 STARLINK-3819,1 52349U 22045U   23314.51968580 -.00001803  00000-0 -95180-4 0  9992,2 52349  53.2201  55.6906 0002113 111.5157 248.6061 15.08846382 87431,6917.861,95.437,541.188,538.264,0.0
52349.0,STARLINK-3819,PAYLOAD,2023-11-10 14:03:43,15.08848778,0.000178,53.2193,55.3894,98.6666,261.4528,-8.326e-05,-1.613e-05,0.0,0 STARLINK-3819,1 52349U 22045U   23314.58592574 -.00001613  00000-0 -83260-4 0  9990,2 52349  53.2193  55.3894 0001780  98.6666 261.4528 15.08848778 87446,6917.854,95.437,540.95,538.487,0.0
